[{"OBJECT_ID":"2010-065B","OBJECT_NAME":"INTELSAT 17","NORAD_CAT_ID":"37238","OBJECT_TYPE":"PAYLOAD","PERIOD":"1436.088","INCLINATION":"0.0461","APOGEE":"35797.036","PERIGEE":"35775.844","ECCENTRICITY":"0.0002513","MEAN_MOTION":"1.00272343","TLE_LINE1":"1 37238U 10065B   16239.03591009 -.00000030  00000-0  00000+0 0  9996","TLE_LINE2":"2 37238   0.0461 259.3121 0002513 253.1142 261.2048  1.00272343 21006","LAUNCH_DATE":"2010-11-26","LAUNCH_SITE":"FRENCH GUIANA","OWNER":"INTERNATIONAL TELECOMMUNICATIONS SATELLITE ORGANIZATION (INTELSAT)","ORBIT_TYPE":"Geosynchronous","OPERATIONAL_STATUS":"Operational","satInfo":{"lng":84.22124993009702,"lat":2.1986346352409663,"elevation":-6.418363803406979,"azimuth":230.778750069903,"range":42408.9650905606,"height":35796.03061174286,"velocity":3.0740316205860614},"x":340.1223516894828,"y":-36.51919417687846,"dx":0.3095159674899136,"dy":3.058409761662382,"maxAlt":341.8790293728845,"minAlt":341.67550748480977},{"OBJECT_ID":"2011-001A","OBJECT_NAME":"ELEKTRO-L","NORAD_CAT_ID":"37344","OBJECT_TYPE":"PAYLOAD","PERIOD":"1444.098","INCLINATION":"1.8341","APOGEE":"36088.588","PERIGEE":"35797.562","ECCENTRICITY":"0.0034383","MEAN_MOTION":"0.99716182","TLE_LINE1":"1 37344U 11001A   16237.22270159 -.00000182  00000-0  00000+0 0  9992","TLE_LINE2":"2 37344   1.8341  79.1330 0034383  81.5917 243.9683  0.99716182 20522","LAUNCH_DATE":"2011-01-20","LAUNCH_SITE":"TYURATAM MISSILE AND SPACE COMPLEX","OWNER":"COMMONWEALTH OF INDEPENDENT STATES","ORBIT_TYPE":"Geosynchronous","OPERATIONAL_STATUS":"Operational","satInfo":{"lng":-178.78439704626086,"lat":0.07261116154399962,"elevation":-8.45810598848094,"azimuth":133.78439704626084,"range":42855.51944922402,"height":36011.30591887655,"velocity":3.0640450437392053},"x":-9.242367770231342,"y":343.8589820855187,"dx":-3.063355459880109,"dy":-0.06500274213840687,"maxAlt":344.6790111354333,"minAlt":341.88408092597655},{"OBJECT_ID":"2011-016A","OBJECT_NAME":"INTELSAT NEW DAWN","NORAD_CAT_ID":"37392","OBJECT_TYPE":"PAYLOAD","PERIOD":"1436.083","INCLINATION":"0.0553","APOGEE":"35789.195","PERIGEE":"35783.469","ECCENTRICITY":"6.79e-05","MEAN_MOTION":"1.00272728","TLE_LINE1":"1 37392U 11016A   16239.00655895  .00000128  00000-0  00000+0 0  9992","TLE_LINE2":"2 37392   0.0553 266.5382 0000679 281.2325 182.0696  1.00272728 19591","LAUNCH_DATE":"2011-04-22","LAUNCH_SITE":"FRENCH GUIANA","OWNER":"INTERNATIONAL TELECOMMUNICATIONS SATELLITE ORGANIZATION (INTELSAT)","ORBIT_TYPE":"Geosynchronous","OPERATIONAL_STATUS":"Operational","satInfo":{"lng":87.14989991654991,"lat":2.2181029376517016,"elevation":-6.405726199455485,"azimuth":227.85010008345006,"range":42375.16922743187,"height":35764.01803675407,"velocity":3.0754797140125003},"x":341.13707917401763,"y":-18.98370297093076,"dx":0.15292244224500384,"dy":3.0716754708074605,"maxAlt":341.8037266584454,"minAlt":341.74873579721867},{"OBJECT_ID":"2011-021A","OBJECT_NAME":"TELSTAR 14R","NORAD_CAT_ID":"37602","OBJECT_TYPE":"PAYLOAD","PERIOD":"1436.115","INCLINATION":"0.053","APOGEE":"35791.843","PERIGEE":"35782.078","ECCENTRICITY":"0.0001158","MEAN_MOTION":"1.00270487","TLE_LINE1":"1 37602U 11021A   16239.09239381 -.00000308  00000-0  00000+0 0  9990","TLE_LINE2":"2 37602   0.0530 296.1348 0001158 342.6781  26.1940  1.00270487 19862","LAUNCH_DATE":"2011-05-20","LAUNCH_SITE":"TYURATAM MISSILE AND SPACE COMPLEX","OWNER":"CANADA","ORBIT_TYPE":"Geosynchronous","OPERATIONAL_STATUS":"Operational","satInfo":{"lng":-75.52815070183824,"lat":-1.9293005520406663,"elevation":-10.450537985337608,"azimuth":30.528150701838214,"range":42868.49626847205,"height":35803.13778986107,"velocity":3.0739735230993768},"x":-334.83854337184124,"y":-87.833294811129,"dx":0.7681992051913805,"dy":-2.9764380057140993,"maxAlt":341.8291572907416,"minAlt":341.7353770322927},{"OBJECT_ID":"2011-022A","OBJECT_NAME":"GSAT 8","NORAD_CAT_ID":"37605","OBJECT_TYPE":"PAYLOAD","PERIOD":"1436.081","INCLINATION":"0.065","APOGEE":"35806.085","PERIGEE":"35766.510","ECCENTRICITY":"0.0004693","MEAN_MOTION":"1.00272852","TLE_LINE1":"1 37605U 11022A   16239.11505694  .00000057  00000-0  00000+0 0  9990","TLE_LINE2":"2 37605   0.0650 282.6497 0004693 332.6912 175.9037  1.00272852 19324","LAUNCH_DATE":"2011-05-20","LAUNCH_SITE":"FRENCH GUIANA","OWNER":"INDIA","ORBIT_TYPE":"Geosynchronous","OPERATIONAL_STATUS":"Operational","satInfo":{"lng":95.00949549199863,"lat":2.113407651515229,"elevation":-6.5061506694548585,"azimuth":219.99050450800135,"range":42398.416453578204,"height":35775.86532892967,"velocity":3.0754189809939},"x":340.36331490391217,"y":28.096359516127457,"dx":-0.26854816417744265,"dy":3.0636716195073,"maxAlt":341.9659333727517,"minAlt":341.58586642670826},{"OBJECT_ID":"2011-022C","OBJECT_NAME":"ARIANE 5 R/B","NORAD_CAT_ID":"37607","OBJECT_TYPE":"ROCKET BODY","PERIOD":"483.295","INCLINATION":"1.754","APOGEE":"27820.870","PERIGEE":"223.322","ECCENTRICITY":"0.6764028","MEAN_MOTION":"2.9795461","TLE_LINE1":"1 37607U 11022C   16238.78726675  .00002736  00000-0  27252-3 0  9996","TLE_LINE2":"2 37607   1.7540 148.1961 6764028 271.0874  18.3794  2.97954610 50138","LAUNCH_DATE":"2011-05-20","LAUNCH_SITE":"FRENCH GUIANA","OWNER":"FRANCE","ORBIT_TYPE":"Highly Elliptical Orbit","OPERATIONAL_STATUS":"N/A, derelict rocket body","satInfo":{"lng":-66.73384019797807,"lat":-0.6038951988061374,"elevation":-11.250340041129808,"azimuth":21.73384019797807,"range":34405.334352735474,"height":27367.94071412103,"velocity":1.9524739107561417},"x":-243.36559416291465,"y":-105.72558814289397,"dx":0.7712330095338144,"dy":-1.7936984186838092,"maxAlt":265.2782194485418,"minAlt":0.23928611566947347},{"OBJECT_ID":"2011-032A","OBJECT_NAME":"TIANLIAN 1-02","NORAD_CAT_ID":"37737","OBJECT_TYPE":"PAYLOAD","PERIOD":"1436.118","INCLINATION":"1.9883","APOGEE":"35809.229","PERIGEE":"35764.795","ECCENTRICITY":"0.0005269","MEAN_MOTION":"1.00270303","TLE_LINE1":"1 37737U 11032A   16238.71354186  .00000002  00000-0  00000+0 0  9990","TLE_LINE2":"2 37737   1.9883  78.8757 0005269 135.0649 194.1131  1.00270303 18791","LAUNCH_DATE":"2011-07-11","LAUNCH_SITE":"Xichang Space Center, China","OWNER":"PEOPLES REPUBLIC OF CHINA","ORBIT_TYPE":"Geosynchronous","OPERATIONAL_STATUS":"Operational","satInfo":{"lng":74.05483472170923,"lat":-4.090965625102156,"elevation":-12.557077241901741,"azimuth":240.94516527829072,"range":43049.151608150874,"height":35748.50340719603,"velocity":3.0761872759461246},"x":328.2037803074649,"y":-96.2209155649265,"dx":0.8450817324404718,"dy":2.9578311348331314,"maxAlt":341.996127446747,"minAlt":341.5693960587369},{"OBJECT_ID":"2011-035B","OBJECT_NAME":"KAZSAT 2","NORAD_CAT_ID":"37749","OBJECT_TYPE":"PAYLOAD","PERIOD":"1436.096","INCLINATION":"0.0116","APOGEE":"35787.372","PERIGEE":"35785.787","ECCENTRICITY":"1.88e-05","MEAN_MOTION":"1.00271845","TLE_LINE1":"1 37749U 11035B   16239.04700255 -.00000226  00000-0  00000+0 0  9994","TLE_LINE2":"2 37749   0.0116 140.8038 0000188  21.4521 275.8914  1.00271845 18650","LAUNCH_DATE":"2011-07-15","LAUNCH_SITE":"TYURATAM MISSILE AND SPACE COMPLEX","OWNER":"KAZAKHSTAN","ORBIT_TYPE":"Geosynchronous","OPERATIONAL_STATUS":"Operational","satInfo":{"lng":64.07154910012466,"lat":-0.048921047010488446,"elevation":-8.621848276247317,"azimuth":250.92845089987534,"range":42645.49048333179,"height":35785.444417915765,"velocity":3.074723538876361},"x":307.17383299162367,"y":-152.17597260092617,"dx":1.344418011147644,"dy":2.7652242317436366,"maxAlt":341.786219089459,"minAlt":341.770997204191},{"OBJECT_ID":"2011-041C","OBJECT_NAME":"ARIANE 5 R/B","NORAD_CAT_ID":"37777","OBJECT_TYPE":"ROCKET BODY","PERIOD":"603.914","INCLINATION":"1.9781","APOGEE":"34304.243","PERIGEE":"273.545","ECCENTRICITY":"0.7189474","MEAN_MOTION":"2.38444408","TLE_LINE1":"1 37777U 11041C   16237.72573300 +.00000770 +00000-0 +33107-3 0  9995","TLE_LINE2":"2 37777 001.9781 065.4421 7189474 299.8757 008.0286 02.38444408043107","LAUNCH_DATE":"2011-08-06","LAUNCH_SITE":"FRENCH GUIANA","OWNER":"FRANCE","ORBIT_TYPE":"Highly Elliptical Orbit","OPERATIONAL_STATUS":"N/A, derelict rocket body","satInfo":{"lng":51.65738618829152,"lat":0.5766952884884342,"elevation":-11.272773282479626,"azimuth":263.3426138117085,"range":30959.361942237876,"height":23985.482301378193,"velocity":3.05366962381121},"x":178.76132756181823,"y":-144.80575320446692,"dx":1.8943822404331667,"dy":2.3950394774447274,"maxAlt":327.54267367900985,"minAlt":0.7216133988316172},{"OBJECT_ID":"2011-047A","OBJECT_NAME":"CHINASAT 1A","NORAD_CAT_ID":"37804","OBJECT_TYPE":"PAYLOAD","PERIOD":"1436.167","INCLINATION":"0.0641","APOGEE":"35796.758","PERIGEE":"35779.191","ECCENTRICITY":"0.0002083","MEAN_MOTION":"1.00266869","TLE_LINE1":"1 37804U 11047A   16238.70243154 -.00000366 +00000-0 +00000-0 0  9997","TLE_LINE2":"2 37804 000.0641 283.6551 0002083 322.6628 110.7449 01.00266869018156","LAUNCH_DATE":"2011-09-17","LAUNCH_SITE":"Xichang Space Center, China","OWNER":"PEOPLES REPUBLIC OF CHINA","ORBIT_TYPE":"Geosynchronous","OPERATIONAL_STATUS":"Operational","satInfo":{"lng":117.10374347003531,"lat":2.2265758975199077,"elevation":-6.38938182932714,"azimuth":197.8962565299647,"range":42413.38858158349,"height":35803.618240787604,"velocity":3.0740598055658834},"x":304.18193641902195,"y":154.7526229264442,"dx":-1.4005510820003892,"dy":2.7364759006618886,"maxAlt":341.8763595406419,"minAlt":341.7076511125649}]